STARLINK-1658_new
1 16368C 20062AW  21326.13665593  .00008604  00000-0  57670-3 0  3269
2 16368  53.0525 198.1393 0001886  71.4861 142.3839 15.06376651    14
STARLINK-1658_old
1 26368C 20062AW  21325.14150660  .00002854  00000-0  19116-3 0  3256
2 26368  53.0531 202.6067 0001923  71.1595 142.9687 15.06403944    16
